[{"OBJECT_NAME":"ASTRA 5B (EGNOS/PRN 123)","OBJECT_ID":"2014-011B","EPOCH":"2026-03-07T06:06:38.818944","MEAN_MOTION":1.00272553,"ECCENTRICITY":0.0003996,"INCLINATION":0.0851,"RA_OF_ASC_NODE":301.39,"ARG_OF_PERICENTER":29.0822,"MEAN_ANOMALY":309.6237,"EPHEMERIS_TYPE":0,"CLASSIFICATION_TYPE":"U","NORAD_CAT_ID":39617,"ELEMENT_SET_NO":999,"REV_AT_EPOCH":4364,"BSTAR":0,"MEAN_MOTION_DOT":1.35e-6,"MEAN_MOTION_DDOT":0},{"OBJECT_NAME":"COSMOS 2492 (754)","OBJECT_ID":"2014-012A","EPOCH":"2026-03-07T00:57:09.916704","MEAN_MOTION":2.13103249,"ECCENTRICITY":0.001314,"INCLINATION":65.3561,"RA_OF_ASC_NODE":317.4095,"ARG_OF_PERICENTER":326.443,"MEAN_ANOMALY":33.5329,"EPHEMERIS_TYPE":0,"CLASSIFICATION_TYPE":"U","NORAD_CAT_ID":39620,"ELEMENT_SET_NO":999,"REV_AT_EPOCH":9306,"BSTAR":0,"MEAN_MOTION_DOT":-6.0e-7,"MEAN_MOTION_DDOT":0},{"OBJECT_NAME":"IRNSS-1B","OBJECT_ID":"2014-017A","EPOCH":"2026-03-03T13:10:18.111936","MEAN_MOTION":1.0027089,"ECCENTRICITY":0.0021171,"INCLINATION":29.1127,"RA_OF_ASC_NODE":242.2056,"ARG_OF_PERICENTER":179.2461,"MEAN_ANOMALY":352.3815,"EPHEMERIS_TYPE":0,"CLASSIFICATION_TYPE":"U","NORAD_CAT_ID":39635,"ELEMENT_SET_NO":999,"REV_AT_EPOCH":4373,"BSTAR":0,"MEAN_MOTION_DOT":1.02e-6,"MEAN_MOTION_DDOT":0},{"OBJECT_NAME":"LUCH 5V (SDCM/PRN 141)","OBJECT_ID":"2014-023A","EPOCH":"2026-03-07T00:40:36.633792","MEAN_MOTION":1.00271257,"ECCENTRICITY":0.00030759,"INCLINATION":4.8814,"RA_OF_ASC_NODE":70.7503,"ARG_OF_PERICENTER":285.6629,"MEAN_ANOMALY":273.2102,"EPHEMERIS_TYPE":0,"CLASSIFICATION_TYPE":"U","NORAD_CAT_ID":39727,"ELEMENT_SET_NO":999,"REV_AT_EPOCH":4333,"BSTAR":0,"MEAN_MOTION_DOT":-2.7e-6,"MEAN_MOTION_DDOT":0},{"OBJECT_NAME":"GPS BIIF-6  (PRN 06)","OBJECT_ID":"2014-026A","EPOCH":"2026-03-06T18:03:52.815168","MEAN_MOTION":2.00568575,"ECCENTRICITY":0.00398378,"INCLINATION":56.5453,"RA_OF_ASC_NODE":335.5082,"ARG_OF_PERICENTER":324.6602,"MEAN_ANOMALY":35.1138,"EPHEMERIS_TYPE":0,"CLASSIFICATION_TYPE":"U","NORAD_CAT_ID":39741,"ELEMENT_SET_NO":999,"REV_AT_EPOCH":8648,"BSTAR":0,"MEAN_MOTION_DOT":-1.0e-6,"MEAN_MOTION_DDOT":0},{"OBJECT_NAME":"COSMOS 2500 (755)","OBJECT_ID":"2014-032A","EPOCH":"2026-03-05T08:00:37.440288","MEAN_MOTION":2.13105772,"ECCENTRICITY":0.00051833,"INCLINATION":65.2924,"RA_OF_ASC_NODE":317.223,"ARG_OF_PERICENTER":201.3822,"MEAN_ANOMALY":158.6566,"EPHEMERIS_TYPE":0,"CLASSIFICATION_TYPE":"U","NORAD_CAT_ID":40001,"ELEMENT_SET_NO":999,"REV_AT_EPOCH":9124,"BSTAR":0,"MEAN_MOTION_DOT":-5.5e-7,"MEAN_MOTION_DDOT":0},{"OBJECT_NAME":"GPS BIIF-7  (PRN 09)","OBJECT_ID":"2014-045A","EPOCH":"2026-03-06T08:12:07.962048","MEAN_MOTION":2.00551673,"ECCENTRICITY":0.00315063,"INCLINATION":55.2826,"RA_OF_ASC_NODE":92.5609,"ARG_OF_PERICENTER":120.4642,"MEAN_ANOMALY":239.907,"EPHEMERIS_TYPE":0,"CLASSIFICATION_TYPE":"U","NORAD_CAT_ID":40105,"ELEMENT_SET_NO":999,"REV_AT_EPOCH":8401,"BSTAR":0,"MEAN_MOTION_DOT":-6.0e-8,"MEAN_MOTION_DDOT":0},{"OBJECT_NAME":"GSAT0201 (GALILEO 5)","OBJECT_ID":"2014-050A","EPOCH":"2026-03-03T05:40:55.999200","MEAN_MOTION":1.85520013,"ECCENTRICITY":0.1657553,"INCLINATION":48.9889,"RA_OF_ASC_NODE":277.7718,"ARG_OF_PERICENTER":175.2875,"MEAN_ANOMALY":186.5034,"EPHEMERIS_TYPE":0,"CLASSIFICATION_TYPE":"U","NORAD_CAT_ID":40128,"ELEMENT_SET_NO":999,"REV_AT_EPOCH":7635,"BSTAR":0,"MEAN_MOTION_DOT":-2.7e-7,"MEAN_MOTION_DDOT":0},{"OBJECT_NAME":"GSAT0202 (GALILEO 6)","OBJECT_ID":"2014-050B","EPOCH":"2026-03-06T04:30:08.141472","MEAN_MOTION":1.8552081,"ECCENTRICITY":0.16589272,"INCLINATION":49.0025,"RA_OF_ASC_NODE":276.7356,"ARG_OF_PERICENTER":176.1364,"MEAN_ANOMALY":185.3302,"EPHEMERIS_TYPE":0,"CLASSIFICATION_TYPE":"U","NORAD_CAT_ID":40129,"ELEMENT_SET_NO":999,"REV_AT_EPOCH":7857,"BSTAR":0,"MEAN_MOTION_DOT":-3.6e-7,"MEAN_MOTION_DDOT":0},{"OBJECT_NAME":"IRNSS-1C","OBJECT_ID":"2014-061A","EPOCH":"2026-03-07T15:29:13.938144","MEAN_MOTION":1.00269313,"ECCENTRICITY":0.00198876,"INCLINATION":6.2571,"RA_OF_ASC_NODE":90.9073,"ARG_OF_PERICENTER":356.6813,"MEAN_ANOMALY":33.0244,"EPHEMERIS_TYPE":0,"CLASSIFICATION_TYPE":"U","NORAD_CAT_ID":40269,"ELEMENT_SET_NO":999,"REV_AT_EPOCH":4167,"BSTAR":0,"MEAN_MOTION_DOT":-1.61e-6,"MEAN_MOTION_DDOT":0},{"OBJECT_NAME":"GPS BIIF-8  (PRN 03)","OBJECT_ID":"2014-068A","EPOCH":"2026-03-06T17:14:22.155072","MEAN_MOTION":2.00570053,"ECCENTRICITY":0.00629025,"INCLINATION":56.9211,"RA_OF_ASC_NODE":34.9026,"ARG_OF_PERICENTER":68.0531,"MEAN_ANOMALY":292.5994,"EPHEMERIS_TYPE":0,"CLASSIFICATION_TYPE":"U","NORAD_CAT_ID":40294,"ELEMENT_SET_NO":999,"REV_AT_EPOCH":8315,"BSTAR":0,"MEAN_MOTION_DOT":-7.7e-7,"MEAN_MOTION_DDOT":0},{"OBJECT_NAME":"COSMOS 2501 (702K)","OBJECT_ID":"2014-075A","EPOCH":"2026-03-01T20:09:56.477664","MEAN_MOTION":2.13101099,"ECCENTRICITY":0.00207353,"INCLINATION":63.617,"RA_OF_ASC_NODE":194.0851,"ARG_OF_PERICENTER":205.716,"MEAN_ANOMALY":154.1408,"EPHEMERIS_TYPE":0,"CLASSIFICATION_TYPE":"U","NORAD_CAT_ID":40315,"ELEMENT_SET_NO":999,"REV_AT_EPOCH":8756,"BSTAR":0,"MEAN_MOTION_DOT":-1.5e-7,"MEAN_MOTION_DDOT":0},{"OBJECT_NAME":"GPS BIIF-9  (PRN 26)","OBJECT_ID":"2015-013A","EPOCH":"2026-03-06T08:25:41.329056","MEAN_MOTION":2.00557521,"ECCENTRICITY":0.01087559,"INCLINATION":53.1859,"RA_OF_ASC_NODE":208.429,"ARG_OF_PERICENTER":39.8054,"MEAN_ANOMALY":320.9401,"EPHEMERIS_TYPE":0,"CLASSIFICATION_TYPE":"U","NORAD_CAT_ID":40534,"ELEMENT_SET_NO":999,"REV_AT_EPOCH":7976,"BSTAR":0,"MEAN_MOTION_DOT":1.6e-7,"MEAN_MOTION_DDOT":0},{"OBJECT_NAME":"GSAT0203 (GALILEO 7)","OBJECT_ID":"2015-017A","EPOCH":"2026-03-05T23:22:37.125984","MEAN_MOTION":1.70475708,"ECCENTRICITY":0.00051696,"INCLINATION":56.821,"RA_OF_ASC_NODE":344.4123,"ARG_OF_PERICENTER":295.903,"MEAN_ANOMALY":64.0652,"EPHEMERIS_TYPE":0,"CLASSIFICATION_TYPE":"U","NORAD_CAT_ID":40544,"ELEMENT_SET_NO":999,"REV_AT_EPOCH":6744,"BSTAR":0,"MEAN_MOTION_DOT":-1.05e-6,"MEAN_MOTION_DDOT":0},{"OBJECT_NAME":"GSAT0204 (GALILEO 8)","OBJECT_ID":"2015-017B","EPOCH":"2026-02-27T04:34:27.961824","MEAN_MOTION":1.7047537,"ECCENTRICITY":0.00043897,"INCLINATION":56.8295,"RA_OF_ASC_NODE":344.6151,"ARG_OF_PERICENTER":286.3298,"MEAN_ANOMALY":73.6287,"EPHEMERIS_TYPE":0,"CLASSIFICATION_TYPE":"U","NORAD_CAT_ID":40545,"ELEMENT_SET_NO":999,"REV_AT_EPOCH":3037,"BSTAR":0,"MEAN_MOTION_DOT":-1.02e-6,"MEAN_MOTION_DDOT":0},{"OBJECT_NAME":"BEIDOU-3S IGSO-1S (C31)","OBJECT_ID":"2015-019A","EPOCH":"2026-03-06T14:25:01.847712","MEAN_MOTION":1.00273571,"ECCENTRICITY":0.00357642,"INCLINATION":49.3862,"RA_OF_ASC_NODE":296.6971,"ARG_OF_PERICENTER":190.6092,"MEAN_ANOMALY":349.746,"EPHEMERIS_TYPE":0,"CLASSIFICATION_TYPE":"U","NORAD_CAT_ID":40549,"ELEMENT_SET_NO":999,"REV_AT_EPOCH":4004,"BSTAR":0,"MEAN_MOTION_DOT":-1.64e-6,"MEAN_MOTION_DDOT":0},{"OBJECT_NAME":"GPS BIIF-10 (PRN 08)","OBJECT_ID":"2015-033A","EPOCH":"2026-03-07T00:14:44.810304","MEAN_MOTION":2.00561541,"ECCENTRICITY":0.0114563,"INCLINATION":54.0627,"RA_OF_ASC_NODE":271.2974,"ARG_OF_PERICENTER":29.0325,"MEAN_ANOMALY":331.6191,"EPHEMERIS_TYPE":0,"CLASSIFICATION_TYPE":"U","NORAD_CAT_ID":40730,"ELEMENT_SET_NO":999,"REV_AT_EPOCH":7794,"BSTAR":0,"MEAN_MOTION_DOT":-9.0e-8,"MEAN_MOTION_DDOT":0},{"OBJECT_NAME":"BEIDOU-3S M2S (C58)","OBJECT_ID":"2015-037A","EPOCH":"2026-03-05T03:43:24.330144","MEAN_MOTION":1.86231809,"ECCENTRICITY":0.0008821,"INCLINATION":54.9621,"RA_OF_ASC_NODE":305.6294,"ARG_OF_PERICENTER":278.3568,"MEAN_ANOMALY":81.6004,"EPHEMERIS_TYPE":0,"CLASSIFICATION_TYPE":"U","NORAD_CAT_ID":40748,"ELEMENT_SET_NO":999,"REV_AT_EPOCH":7218,"BSTAR":0,"MEAN_MOTION_DOT":-6.5e-7,"MEAN_MOTION_DDOT":0},{"OBJECT_NAME":"BEIDOU-3S M1S (C57)","OBJECT_ID":"2015-037B","EPOCH":"2026-03-02T16:34:49.336320","MEAN_MOTION":1.86253746,"ECCENTRICITY":0.0004647,"INCLINATION":54.961,"RA_OF_ASC_NODE":305.7025,"ARG_OF_PERICENTER":29.9008,"MEAN_ANOMALY":330.1863,"EPHEMERIS_TYPE":0,"CLASSIFICATION_TYPE":"U","NORAD_CAT_ID":40749,"ELEMENT_SET_NO":999,"REV_AT_EPOCH":7214,"BSTAR":0,"MEAN_MOTION_DOT":-5.3e-7,"MEAN_MOTION_DDOT":0},{"OBJECT_NAME":"GSAT0205 (GALILEO 9)","OBJECT_ID":"2015-045A","EPOCH":"2026-02-12T22:54:15.154848","MEAN_MOTION":1.674108,"ECCENTRICITY":0.03595998,"INCLINATION":53.6403,"RA_OF_ASC_NODE":225.6057,"ARG_OF_PERICENTER":59.9658,"MEAN_ANOMALY":303.5577,"EPHEMERIS_TYPE":0,"CLASSIFICATION_TYPE":"U","NORAD_CAT_ID":40889,"ELEMENT_SET_NO":999,"REV_AT_EPOCH":6421,"BSTAR":0,"MEAN_MOTION_DOT":7.8e-7,"MEAN_MOTION_DDOT":0},{"OBJECT_NAME":"GSAT0206 (GALILEO 10)","OBJECT_ID":"2015-045B","EPOCH":"2026-03-06T19:19:15.881952","MEAN_MOTION":1.70473796,"ECCENTRICITY":0.00036926,"INCLINATION":54.9807,"RA_OF_ASC_NODE":224.4283,"ARG_OF_PERICENTER":50.2396,"MEAN_ANOMALY":309.7351,"EPHEMERIS_TYPE":0,"CLASSIFICATION_TYPE":"U","NORAD_CAT_ID":40890,"ELEMENT_SET_NO":999,"REV_AT_EPOCH":6529,"BSTAR":0,"MEAN_MOTION_DOT":2.3e-7,"MEAN_MOTION_DDOT":0},{"OBJECT_NAME":"GPS BIIF-11 (PRN 10)","OBJECT_ID":"2015-062A","EPOCH":"2026-03-06T13:41:27.741408","MEAN_MOTION":2.00567148,"ECCENTRICITY":0.01114468,"INCLINATION":56.8944,"RA_OF_ASC_NODE":34.7646,"ARG_OF_PERICENTER":231.5107,"MEAN_ANOMALY":127.4729,"EPHEMERIS_TYPE":0,"CLASSIFICATION_TYPE":"U","NORAD_CAT_ID":41019,"ELEMENT_SET_NO":999,"REV_AT_EPOCH":7577,"BSTAR":0,"MEAN_MOTION_DOT":-7.7e-7,"MEAN_MOTION_DDOT":0},{"OBJECT_NAME":"GSAT-15 (GAGAN/PRN 139)","OBJECT_ID":"2015-065A","EPOCH":"2026-03-07T09:35:38.772384","MEAN_MOTION":1.00272198,"ECCENTRICITY":0.00012092,"INCLINATION":0.0823,"RA_OF_ASC_NODE":269.5034,"ARG_OF_PERICENTER":111.2106,"MEAN_ANOMALY":21.7781,"EPHEMERIS_TYPE":0,"CLASSIFICATION_TYPE":"U","NORAD_CAT_ID":41028,"ELEMENT_SET_NO":999,"REV_AT_EPOCH":3777,"BSTAR":0,"MEAN_MOTION_DOT":-2.59e-6,"MEAN_MOTION_DDOT":0},{"OBJECT_NAME":"GSAT0209 (GALILEO 12)","OBJECT_ID":"2015-079A","EPOCH":"2026-03-05T19:12:03.208896","MEAN_MOTION":1.70474567,"ECCENTRICITY":0.00047381,"INCLINATION":55.7602,"RA_OF_ASC_NODE":104.0969,"ARG_OF_PERICENTER":323.5937,"MEAN_ANOMALY":36.4535,"EPHEMERIS_TYPE":0,"CLASSIFICATION_TYPE":"U","NORAD_CAT_ID":41174,"ELEMENT_SET_NO":999,"REV_AT_EPOCH":6301,"BSTAR":0,"MEAN_MOTION_DOT":8.0e-8,"MEAN_MOTION_DDOT":0}]
